BEGIN IMS2.0
MSG_TYPE DATA
MSG_ID 20190502222812845
DATA_TYPE CALIBPHD
#Header 3
MIX58 MIX58_194 B CYLINDER          FULL
58201904301011K
MIX58_194-2019/05/02-07:22:37.1 MIX58_194-2019/02/13-07:56:25.3 0                              
2019/05/02 22:28:12.8
#Comment
Calibration Xe-133

#Acquisition
2019/05/02 07:22:37.1 54335.69       54000.00      
#Calibration
2019/03/07 22:53:14  
#g_Energy
30.000000        11.700000        0.050000        
53.160000        19.900000        0.050000        
81.000000        31.550000        0.050000        
356.01000        127.700000       0.050000        
661.66000        229.700000       0.050000        
#b_Energy
79.019997        C 21.200001        0.100000        
94.260002        C 25.500000        0.100000        
109.453796       C 29.820000        0.100000        
124.595001       C 34.700001        0.100000        
139.685303       C 40.500000        0.100000        
154.726501       C 45.099998        0.100000        
169.720001       C 51.000000        0.100000        
184.660004       C 56.599998        0.100000        
199.559998       C 60.400002        0.100000        
214.410004       C 66.000000        0.100000        
229.207001       C 70.400002        0.100000        
243.960999       C 75.500000        0.100000        
258.670013       C 80.900002        0.100000        
273.329987       C 86.000000        0.100000        
287.950012       C 91.199997        0.100000        
302.519989       C 96.900002        0.100000        
317.045990       C 100.099998       0.100000        
331.528687       C 107.000000       0.100000        
345.967987       C 111.349998       0.100000        
360.359985       C 116.300003       0.100000        
374.716003       C 121.400002       0.100000        
389.026001       C 127.000000       0.100000        
403.293915       C 131.399994       0.100000        
417.519897       C 135.300003       0.100000        
#g_Resolution
32.000000        6.950000         0.200000        
53.160000        8.600000         0.200000        
81.000000        11.600000        0.200000        
356.010010       35.599998        0.200000        
661.659973       48.349998        0.200000        
#b_Resolution
79.019997        25.200001        0.300000        
94.260002        31.000000        0.300000        
109.453796       30.110001        0.300000        
124.595001       34.000000        0.300000        
139.685303       36.230000        0.300000        
154.726501       35.900002        0.300000        
169.720001       48.599998        0.300000        
184.660004       46.500000        0.300000        
199.559998       53.799999        0.300000        
214.410004       54.200001        0.300000        
229.207001       56.029999        0.300000        
243.960999       54.200001        0.300000        
258.670013       57.099998        0.300000        
273.329987       60.700001        0.300000        
287.950012       62.200001        0.300000        
302.519989       59.500000        0.300000        
317.045990       69.099998        0.300000        
331.528687       72.199997        0.300000        
345.967987       83.349998        0.300000        
360.359985       84.699997        0.300000        
374.716003       86.400002        0.300000        
389.026001       79.199997        0.300000        
403.293915       80.400002        0.300000        
417.519897       80.599998        0.300000        
#ROI_Limits
1  23.250000  597.669983 320.899994 384.700012
2  23.250000  733.911987 219.000000 278.299988
3  23.250000  352.500000 71.150002  93.099998 
4  23.250000  394.140015 22.031401  38.299999 
5  89.000000  169.000000 22.031401  38.299999 
6  170.729996 251.000000 22.031401  38.299999 
7  23.250000  87.230003  22.031401  38.299999 
8  252.929993 394.140015 22.031401  38.299999 
9  170.729996 394.140015 22.031401  38.299999 
10 23.250000  169.000000 22.031401  38.299999 
#g_Efficiency
30.000000        0.410000         0.100000        
32.799999        0.460000         0.100000        
59.536999        0.720000         0.100000        
391.700012       0.150000         0.100000        
661.700012       0.090000         0.100000        
662.000000       0.090000         0.100000        
#b-gEfficiency
XE-135     2        0.2450     0.0500    
XE-133     3        0.4130     0.0500    
XE-133     4        0.4470     0.0500    
XE-131m    5        0.4060     0.1000    
XE-133m    6        0.4080     0.1000    
XE-1337    7        0.2130     0.0100    
XE-1338    8        0.0560     0.0020    
XE-1339    9        0.3700     0.0100    
XE-13310   10       0.1800     0.0100    
#Ratios
PB214_352:242   1  2  0.700000   0.0083
PB214_352:80    1  3  1.260000   0.0100
PB214_352:30_4  1  4  0.190000   0.0100
PB214_352:30_5  1  5  0.050000   0.0100
PB214_352:30_6  1  6  0.050000   0.0051
PB214_352:30_7  1  7  0.031000   0.0011
PB214_352:30_8  1  8  0.060000   0.0016
PB214_352:30_9  1  9  0.100000   0.0020
PB214_352:30_10 1  10 0.080000   0.0016
XE133-4_81:30   3  4  0.055000   0.002100  
XE133-5_81:30   3  5  0.347000   0.004100  
XE133-6_81:30   3  6  0.270000   0.001600  
XE133-7_81:30   3  7  0.022000   0.001100  
XE133-8_81:30   3  8  0.002900   0.000400  
XE133-9_81:30   3  9  0.013000   0.000900  
XE133-10_81:30  3  10 0.040000   0.001500  
#g_Spectrum
256   720 
0     0          0          0          0          2840      
5     2630       3179       6248       5638       2515      
10    2398       4714       7971       6717       4171      
15    3114       4648       5715       3086       2290      
20    2099       2009       1785       1686       1861      
25    1964       1946       2109       2563       3377      
30    4979       7075       8550       7415       4963      
35    3157       2261       1704       1560       1359      
40    1348       1336       1315       1306       1339      
45    1264       1326       1317       1428       1284      
50    1331       1406       1385       1337       1335      
55    1421       1328       1316       1310       1310      
60    1299       1290       1256       1280       1239      
65    1269       1376       1306       1287       1321      
70    1317       1270       1339       1374       1309      
75    1286       1324       1291       1227       1257      
80    1289       1364       1317       1318       1336      
85    1285       1343       1304       1378       1274      
90    1329       1335       1234       1192       1235      
95    1179       1223       1106       1127       1143      
100   1137       1098       1112       1065       1159      
105   1110       1030       1111       1072       1083      
110   1063       1047       1079       1073       936       
115   1025       987        931        944        995       
120   979        929        967        951        928       
125   974        923        910        987        890       
130   931        881        885        885        832       
135   869        883        834        847        845       
140   811        867        874        835        823       
145   866        848        817        797        775       
150   846        789        740        772        833       
155   732        795        813        771        722       
160   756        663        754        735        763       
165   686        715        715        737        775       
170   721        728        742        753        755       
175   743        681        724        764        807       
180   756        812        747        850        715       
185   773        736        758        693        700       
190   699        643        672        652        644       
195   646        654        611        629        637       
200   621        686        600        639        640       
205   651        618        652        588        571       
210   662        586        614        592        621       
215   613        569        577        600        646       
220   636        597        590        656        642       
225   643        658        681        660        647       
230   646        656        702        655        621       
235   682        627        585        592        569       
240   531        554        512        474        496       
245   474        466        460        392        468       
250   438        467        0          0          0         
255   0
#b_Spectrum
256   550 
0     0          0          0          0          15082     
5     9628       7209       6121       5332       4654      
10    4160       3698       3319       2941       2615      
15    2589       2434       2370       2204       2088      
20    1996       1990       1881       1811       1784      
25    1726       1670       1621       1579       1464      
30    1470       1444       1383       1411       1416      
35    1302       1353       1172       1229       1259      
40    1155       1104       1146       1043       1087      
45    1078       1041       997        969        969       
50    878        909        895        854        850       
55    772        772        814        763        708       
60    753        704        673        628        647       
65    618        588        578        556        526       
70    536        502        438        490        472       
75    427        414        431        387        339       
80    340        337        358        342        303       
85    300        299        298        276        238       
90    231        241        238        216        215       
95    227        204        180        193        176       
100   176        168        159        164        142       
105   156        153        130        132        130       
110   113        110        105        127        89        
115   79         94         87         92         81        
120   90         72         83         61         84        
125   72         76         71         66         64        
130   63         80         83         73         71        
135   55         61         69         71         63        
140   60         59         48         57         61        
145   48         55         49         46         53        
150   59         47         59         51         55        
155   53         34         43         47         34        
160   34         50         38         46         38        
165   41         53         50         44         41        
170   32         41         41         29         32        
175   38         38         24         40         37        
180   31         30         35         39         35        
185   45         31         28         25         28        
190   40         28         26         26         42        
195   38         22         28         28         29        
200   39         20         27         18         35        
205   17         22         28         14         26        
210   29         20         27         27         22        
215   28         23         22         30         23        
220   21         22         23         15         18        
225   17         10         21         11         19        
230   20         16         14         26         16        
235   14         16         7          25         20        
240   14         14         21         13         14        
245   18         17         6          15         10        
250   10         16         0          0          0         
255   0
#Histogram
256   256   720  550 
0 0 0 0 0 0 0 0 0 0 0 0 0 0 0 0 0 0 0 0 0 0 0 0 0 0 0 0 0 0 0 0 0 0 0 0 0 0 0 0 0 0 0 0 0 0 0 0 0 0 0 0 0 0 0 0 0 0 0 0 0 0 0 0 0 0 0 0 0 0 0 0 0 0 0 0 0 0 0 0 0 0 0 0 0 0 0 0 0 0 0 0 0 0 0 0 0 0 0 0 0 0 0 0 0 0 0 0 0 0 0 0 0 0 0 0 0 0 0 0 0 0 0 0 0 0 0 0 0 0 0 0 0 0 0 0 0 0 0 0 0 0 0 0 0 0 0 0 0 0 0 0 0 0 0 0 0 0 0 0 0 0 0 0 0 0 0 0 0 0 0 0 0 0 0 0 0 0 0 0 0 0 0 0 0 0 0 0 0 0 0 0 0 0 0 0 0 0 0 0 0 0 0 0 0 0 0 0 0 0 0 0 0 0 0 0 0 0 0 0 0 0 0 0 0 0 0 0 0 0 0 0 0 0 0 0 0 0 0 0 0 0 0 0 0 0 0 0 0 0 0 0 0 0 0 0 
0 0 0 0 0 0 0 0 0 0 0 0 0 0 0 0 0 0 0 0 0 0 0 0 0 0 0 0 0 0 0 0 0 0 0 0 0 0 0 0 0 0 0 0 0 0 0 0 0 0 0 0 0 0 0 0 0 0 0 0 0 0 0 0 0 0 0 0 0 0 0 0 0 0 0 0 0 0 0 0 0 0 0 0 0 0 0 0 0 0 0 0 0 0 0 0 0 0 0 0 0 0 0 0 0 0 0 0 0 0 0 0 0 0 0 0 0 0 0 0 0 0 0 0 0 0 0 0 0 0 0 0 0 0 0 0 0 0 0 0 0 0 0 0 0 0 0 0 0 0 0 0 0 0 0 0 0 0 0 0 0 0 0 0 0 0 0 0 0 0 0 0 0 0 0 0 0 0 0 0 0 0 0 0 0 0 0 0 0 0 0 0 0 0 0 0 0 0 0 0 0 0 0 0 0 0 0 0 0 0 0 0 0 0 0 0 0 0 0 0 0 0 0 0 0 0 0 0 0 0 0 0 0 0 0 0 0 0 0 0 0 0 0 0 0 0 0 0 0 0 0 0 0 0 0 0 
0 0 0 0 0 0 0 0 0 0 0 0 0 0 0 0 0 0 0 0 0 0 0 0 0 0 0 0 0 0 0 0 0 0 0 0 0 0 0 0 0 0 0 0 0 0 0 0 0 0 0 0 0 0 0 0 0 0 0 0 0 0 0 0 0 0 0 0 0 0 0 0 0 0 0 0 0 0 0 0 0 0 0 0 0 0 0 0 0 0 0 0 0 0 0 0 0 0 0 0 0 0 0 0 0 0 0 0 0 0 0 0 0 0 0 0 0 0 0 0 0 0 0 0 0 0 0 0 0 0 0 0 0 0 0 0 0 0 0 0 0 0 0 0 0 0 0 0 0 0 0 0 0 0 0 0 0 0 0 0 0 0 0 0 0 0 0 0 0 0 0 0 0 0 0 0 0 0 0 0 0 0 0 0 0 0 0 0 0 0 0 0 0 0 0 0 0 0 0 0 0 0 0 0 0 0 0 0 0 0 0 0 0 0 0 0 0 0 0 0 0 0 0 0 0 0 0 0 0 0 0 0 0 0 0 0 0 0 0 0 0 0 0 0 0 0 0 0 0 0 0 0 0 0 0 0 
0 0 0 0 0 0 0 0 0 0 0 0 0 0 0 0 0 0 0 0 0 0 0 0 0 0 0 0 0 0 0 0 0 0 0 0 0 0 0 0 0 0 0 0 0 0 0 0 0 0 0 0 0 0 0 0 0 0 0 0 0 0 0 0 0 0 0 0 0 0 0 0 0 0 0 0 0 0 0 0 0 0 0 0 0 0 0 0 0 0 0 0 0 0 0 0 0 0 0 0 0 0 0 0 0 0 0 0 0 0 0 0 0 0 0 0 0 0 0 0 0 0 0 0 0 0 0 0 0 0 0 0 0 0 0 0 0 0 0 0 0 0 0 0 0 0 0 0 0 0 0 0 0 0 0 0 0 0 0 0 0 0 0 0 0 0 0 0 0 0 0 0 0 0 0 0 0 0 0 0 0 0 0 0 0 0 0 0 0 0 0 0 0 0 0 0 0 0 0 0 0 0 0 0 0 0 0 0 0 0 0 0 0 0 0 0 0 0 0 0 0 0 0 0 0 0 0 0 0 0 0 0 0 0 0 0 0 0 0 0 0 0 0 0 0 0 0 0 0 0 0 0 0 0 0 0 
0 0 0 0 1 1 2 0 3 1 0 0 0 1 0 2 0 2 1 0 0 0 1 0 0 0 0 1 0 1 0 1 0 0 0 1 1 0 1 1 0 0 0 0 1 0 1 0 0 0 0 0 0 0 0 0 0 2 0 0 0 0 0 1 0 0 0 0 0 0 0 0 0 0 0 1 0 0 0 0 0 0 0 0 0 0 0 0 0 0 0 0 0 0 0 0 1 0 0 0 0 0 1 0 1 0 0 0 0 1 0 0 0 0 0 0 0 0 0 0 0 1 0 0 0 0 0 0 0 0 0 0 0 0 0 0 0 0 0 0 0 0 0 0 0 0 0 0 0 0 0 0 0 0 0 0 0 0 0 0 0 0 0 0 0 0 0 0 0 0 0 0 0 0 0 0 0 0 0 0 0 0 0 0 0 0 0 0 0 0 0 0 0 0 0 0 0 0 0 0 0 0 0 0 0 0 0 0 0 0 0 0 0 0 0 0 0 0 0 0 0 0 0 0 0 0 0 0 0 0 0 0 0 0 0 0 0 0 0 0 0 0 0 0 0 0 0 0 0 0 0 0 0 0 0 0 
0 0 0 0 2 3 1 1 0 0 0 2 0 1 1 0 0 0 0 0 1 0 0 1 1 1 1 1 0 0 0 0 0 0 0 0 0 2 0 0 0 0 1 0 0 0 1 0 0 0 0 0 0 0 0 0 0 0 1 0 0 1 0 0 0 0 0 0 0 0 1 0 0 0 0 0 1 0 0 0 0 0 0 0 0 0 0 0 0 0 1 0 0 0 0 0 0 0 0 0 1 0 0 0 0 0 0 0 0 0 0 0 0 0 1 0 0 0 0 0 0 0 0 0 0 0 0 1 0 0 0 0 0 0 0 0 0 0 1 0 0 0 0 0 0 0 0 0 0 0 0 0 0 0 0 0 0 0 0 0 0 0 0 0 0 0 0 0 0 0 0 0 0 0 0 0 0 0 0 0 0 1 0 0 0 0 0 0 0 0 0 0 0 0 0 0 0 0 0 0 0 0 0 0 0 0 0 0 0 0 0 0 0 0 0 0 0 0 0 0 0 0 0 0 0 0 0 0 0 0 0 0 0 0 0 0 0 0 0 0 0 0 0 0 0 0 0 0 0 0 0 0 0 0 0 0 
0 0 0 0 0 1 0 1 0 0 0 1 0 0 3 0 1 0 1 1 0 0 0 1 0 0 1 0 0 0 1 1 1 1 1 0 0 0 0 1 0 0 0 1 1 1 0 0 0 0 0 0 0 0 0 1 0 0 0 0 0 0 0 0 0 0 1 0 0 0 0 0 0 1 0 1 0 0 0 0 1 0 0 0 0 0 0 0 0 0 0 0 0 0 0 0 0 1 0 0 0 0 0 0 1 0 0 0 0 0 0 0 0 0 0 0 0 0 0 1 0 0 0 0 0 0 0 0 0 0 0 0 0 0 0 0 0 0 0 0 0 0 0 0 0 0 0 0 0 0 0 0 0 0 0 0 0 0 0 0 0 0 0 0 0 0 1 0 0 0 0 0 0 0 0 0 0 0 0 0 0 0 0 0 0 0 0 0 0 0 0 0 0 0 0 0 0 0 0 0 0 0 0 0 0 0 0 0 0 0 0 0 0 0 0 0 0 0 0 0 0 0 0 0 0 0 0 0 0 0 0 0 0 0 0 0 0 0 0 0 0 0 0 0 0 0 0 0 0 0 0 0 0 0 0 0 
0 0 0 0 1 2 2 0 2 2 0 0 0 1 1 0 1 0 1 0 1 1 0 0 0 0 1 0 0 0 0 0 1 0 0 0 0 0 0 0 0 2 0 0 1 0 0 0 0 0 0 0 0 0 0 0 0 0 0 0 1 1 0 0 0 1 1 0 0 0 0 0 0 0 0 0 0 0 0 0 0 0 0 0 0 0 0 0 0 0 0 0 0 0 0 0 0 0 1 0 0 0 0 1 0 0 0 0 0 0 0 0 0 0 0 0 0 0 0 0 0 0 0 0 0 0 0 0 0 0 0 0 0 0 0 0 0 0 0 0 0 0 0 0 0 0 0 0 0 0 0 0 0 0 0 0 0 0 0 0 0 0 0 0 0 0 0 0 0 0 0 0 0 0 0 0 0 0 0 0 0 0 0 0 0 0 0 0 0 0 0 0 0 0 0 0 0 0 0 0 0 0 1 0 0 0 0 0 0 0 0 0 0 0 0 0 0 0 0 0 0 1 0 0 0 0 0 0 0 0 0 0 0 0 0 0 0 0 0 0 0 0 0 0 0 0 0 0 0 0 0 0 0 0 0 0 
0 0 0 0 0 0 0 1 0 3 1 0 1 0 0 0 2 2 1 0 0 1 0 1 0 0 0 0 0 1 1 0 0 0 0 0 1 0 3 1 0 0 1 0 0 0 0 1 1 1 0 1 1 0 0 0 0 0 1 0 2 0 1 0 0 0 1 0 0 0 1 0 0 0 0 0 0 0 0 0 0 0 0 0 0 0 0 0 0 1 0 0 0 0 0 0 0 0 1 0 0 1 0 0 0 0 0 0 1 0 0 0 0 0 0 0 0 0 0 0 0 0 0 0 0 0 0 0 0 0 0 0 0 0 0 0 0 0 0 0 0 0 0 0 0 0 0 0 0 0 0 0 0 0 0 0 0 0 0 0 0 0 0 0 0 0 0 0 0 0 0 0 0 0 0 0 0 0 0 0 0 0 0 0 0 0 0 0 0 0 0 0 0 0 0 0 0 0 0 0 1 0 0 0 0 0 0 0 0 0 0 0 1 0 0 0 0 0 0 0 0 0 0 0 0 0 0 0 0 0 0 0 0 0 0 0 0 0 0 0 0 0 0 0 0 0 0 0 0 0 0 0 0 0 0 0 
0 0 0 0 2 1 0 1 3 6 3 2 1 1 4 1 0 0 0 0 1 1 1 0 0 0 0 0 0 1 0 2 0 2 0 0 1 0 1 3 1 1 0 2 0 0 0 1 1 0 0 2 0 0 2 0 0 1 1 0 2 0 0 1 0 0 1 0 0 0 0 0 0 0 1 0 1 0 0 0 0 0 0 1 1 0 0 0 0 0 2 0 0 0 0 0 0 0 0 0 0 0 0 0 0 0 0 0 0 0 0 0 0 0 0 0 0 0 0 1 0 0 1 0 0 0 0 0 0 0 0 0 0 0 0 0 0 0 0 0 0 0 0 0 0 0 0 0 0 0 0 0 0 0 0 0 0 0 0 0 0 0 0 0 0 0 0 0 0 0 0 0 0 0 0 0 0 0 0 0 0 0 0 0 0 0 0 0 1 0 0 0 0 0 0 0 0 0 0 0 0 0 0 0 0 0 0 0 0 0 0 0 0 0 0 0 0 0 0 0 0 0 0 0 0 0 0 0 0 0 0 0 0 0 0 0 0 0 0 0 0 0 0 0 0 0 0 0 0 0 0 0 0 0 0 0 
0 0 0 0 8 7 7 10 15 12 20 15 9 7 9 9 5 7 4 2 3 3 5 2 7 5 3 2 3 7 4 5 3 2 3 8 4 4 2 5 4 4 7 6 8 3 0 3 1 6 2 4 2 3 2 2 1 4 3 1 5 2 3 1 1 3 1 2 3 3 4 5 3 1 0 2 0 4 1 1 0 1 0 2 0 0 0 0 0 3 1 0 0 0 0 2 2 1 1 0 1 1 0 0 0 0 0 0 0 0 1 0 0 0 0 0 0 0 0 0 0 0 0 0 0 0 0 0 0 0 0 0 0 0 0 0 0 0 0 1 0 0 0 0 0 0 0 0 0 0 0 0 0 0 0 0 1 0 0 0 0 0 0 0 0 0 0 0 0 0 0 0 0 0 0 0 0 0 0 0 0 0 0 0 0 0 0 0 0 0 0 0 0 0 0 0 0 0 0 0 0 0 0 0 0 0 0 0 0 0 0 0 0 0 0 0 0 0 0 0 0 0 0 0 0 0 0 0 0 0 0 0 0 0 0 0 0 0 0 0 0 0 0 0 0 0 0 0 0 0 0 0 0 0 0 0 
0 0 0 0 39 48 66 102 96 75 81 66 57 39 33 39 44 39 36 40 34 50 38 42 27 31 36 37 31 35 37 25 34 28 20 27 29 28 27 20 23 30 20 18 19 24 29 19 23 19 10 23 22 16 16 17 7 18 21 21 11 17 13 9 18 14 15 6 14 8 11 8 8 9 8 7 7 7 5 3 3 5 6 5 7 6 4 4 2 6 2 3 3 5 2 1 1 5 3 1 2 3 1 1 1 0 0 1 0 5 0 2 1 0 2 0 1 0 0 1 0 0 0 0 0 0 0 0 0 0 0 0 0 1 0 0 0 0 0 1 0 0 0 0 0 0 0 0 0 0 0 0 0 0 0 0 0 0 0 0 0 0 0 0 0 0 0 0 0 0 0 0 0 0 0 0 0 0 0 0 0 0 0 0 0 0 0 0 0 0 0 0 0 0 0 0 0 0 0 0 0 0 0 0 0 0 0 0 0 0 0 0 0 0 0 0 0 0 0 0 0 0 0 0 0 0 0 0 0 0 0 0 0 0 0 0 0 0 0 0 0 0 0 0 0 0 1 0 0 0 0 0 0 0 0 0 
0 0 0 0 91 117 154 193 191 168 157 138 147 102 76 62 89 83 93 69 84 88 59 61 69 79 79 72 76 51 71 64 68 59 71 68 71 63 61 72 52 54 50 55 47 57 44 44 36 41 48 32 33 42 38 28 41 43 42 33 38 26 25 26 19 21 26 26 23 34 22 11 17 14 14 20 18 14 12 18 15 15 16 17 9 6 16 10 10 7 5 8 15 13 7 6 6 7 5 5 3 4 2 3 0 2 1 0 4 3 2 0 3 1 2 2 0 0 1 1 1 0 1 0 0 0 0 0 0 0 0 0 0 0 0 0 0 1 0 0 0 0 0 0 0 0 0 0 0 0 0 0 0 0 0 0 0 0 0 0 0 0 0 0 1 0 0 0 0 0 0 0 0 0 0 0 0 0 0 0 0 0 0 0 0 0 0 0 0 0 0 0 0 0 0 0 0 0 0 0 0 0 0 0 0 0 0 0 0 0 0 0 0 0 0 0 0 0 0 0 0 0 0 0 0 0 0 0 0 0 0 0 0 0 0 0 0 0 0 0 0 0 0 0 0 0 0 0 0 0 0 0 0 0 0 0 
0 0 0 0 56 70 119 142 149 152 118 95 79 86 67 54 51 65 40 42 71 63 46 46 56 52 60 51 58 52 41 51 45 49 42 45 54 49 53 36 40 34 48 34 30 44 25 37 31 33 29 33 30 22 32 15 28 27 25 29 23 24 18 18 27 22 20 23 19 26 17 19 13 10 18 11 10 15 13 6 9 11 11 9 8 3 11 15 9 9 4 7 5 6 3 2 3 1 2 5 1 1 8 3 3 3 4 1 1 1 2 4 0 1 0 0 0 0 2 0 0 0 0 1 1 0 0 1 0 0 1 0 0 0 0 0 0 0 0 0 0 0 0 0 0 0 0 0 0 0 0 0 0 0 0 0 0 0 0 0 0 0 0 0 0 0 0 0 0 0 0 0 0 0 0 0 0 0 1 0 0 0 0 0 0 0 0 0 0 0 0 0 0 0 0 0 0 0 0 0 0 0 0 0 0 0 0 0 0 0 0 0 0 0 0 0 0 0 0 0 0 0 0 0 0 0 0 0 0 0 0 0 0 0 0 0 0 0 0 0 0 0 0 0 0 0 0 0 0 0 0 0 0 0 0 0 
0 0 0 0 24 39 57 57 54 44 63 49 32 29 23 28 30 20 23 19 19 24 16 25 21 13 13 23 18 17 25 18 25 20 15 17 23 12 12 7 13 13 23 14 16 15 17 14 13 16 9 14 8 10 10 9 11 15 14 12 12 12 4 8 3 10 6 6 6 9 6 6 2 5 9 4 5 7 3 1 4 2 6 4 1 7 3 1 3 1 3 0 2 1 3 0 3 1 2 1 0 2 0 1 1 1 2 1 1 0 0 1 1 0 1 0 0 0 0 0 0 0 0 0 0 0 0 0 0 0 0 0 0 0 0 0 0 0 0 0 0 0 0 0 0 0 0 0 0 0 0 0 0 0 0 0 0 0 0 0 0 0 0 0 0 0 0 0 0 0 0 0 0 0 0 0 0 0 0 0 0 0 0 0 0 0 0 0 0 0 0 0 0 0 0 0 0 0 0 0 0 0 0 0 0 0 0 0 0 0 0 0 0 0 0 0 0 0 0 0 0 0 0 0 0 0 0 0 0 0 0 0 0 0 0 0 0 0 0 0 0 0 0 0 0 0 0 0 0 0 0 0 0 0 0 0 
