BEGIN IMS2.0
MSG_TYPE DATA
MSG_ID 20211203070613605
DATA_TYPE SAMPLEPHD
#Header 3
MIX58 MIX58_222 B CYLINDER          FULL
58202112020111X
MIX58_222-2021/12/02-17:00:54.4 MIX58_222-2021/08/16-06:20:34.8 MIX58_222-2021/12/02-08:08:59.1
2021/12/03 07:06:13.6
#Comment
Histogram data

#Collection
2021/12/02 01:00:25.0 2021/12/02 12:59:59.0 22.3474140
#Acquisition
2021/12/02 17:00:54.4 50719.17       50400.00      
#Calibration
2021/12/02 17:00:54.4
#Processing
0.99533  0.08659 
0.61685  0.05367 
17
#g_Energy
30.000000        11.700000        0.050000        
53.160000        19.900000        0.050000        
81.000000        31.550000        0.050000        
356.010000       127.700000       0.050000        
661.660000       229.700000       0.050000        
#b_Energy
79.020000        C 21.200000        0.100000        
94.260000        C 25.500000        0.100000        
109.453800       C 29.820000        0.100000        
124.595000       C 34.700000        0.100000        
139.685300       C 40.500000        0.100000        
154.726500       C 45.100000        0.100000        
169.720000       C 51.000000        0.100000        
184.660000       C 56.600000        0.100000        
199.560000       C 60.400000        0.100000        
214.410000       C 66.000000        0.100000        
229.207000       C 70.400000        0.100000        
243.961000       C 75.500000        0.100000        
258.670000       C 80.900000        0.100000        
273.330000       C 86.000000        0.100000        
287.950000       C 91.200000        0.100000        
302.520000       C 96.900000        0.100000        
317.046000       C 100.100000       0.100000        
331.528700       C 107.000000       0.100000        
345.968000       C 111.350000       0.100000        
360.360000       C 116.300000       0.100000        
374.716000       C 121.400000       0.100000        
389.026000       C 127.000000       0.100000        
403.293900       C 131.400000       0.100000        
417.519900       C 135.300000       0.100000        
#g_Resolution
30.000000        6.260000         0.200000        
53.160000        8.600000         0.200000        
81.000000        11.700000        0.200000        
356.010000       35.450000        0.200000        
661.660000       51.100000        0.200000        
#b_Resolution
94.260000        8.300000         0.300000        
124.595000       29.500000        0.300000        
154.726500       32.030000        0.300000        
184.660000       39.960000        0.300000        
214.410000       49.960000        0.300000        
243.961000       53.600000        0.300000        
273.330000       60.840000        0.300000        
302.520000       67.030000        0.300000        
331.528700       74.500000        0.300000        
360.360000       84.300000        0.300000        
389.026000       93.060000        0.300000        
#ROI_Limits
1  29.800000  597.670000 320.900000 384.700000
2  29.800000  733.912000 228.980000 280.540000
3  29.800000  352.500000 71.150000  99.830000 
4  29.800000  394.140000 19.250000  41.030000 
5  78.200000  166.000000 19.250000  41.030000 
6  170.730000 252.930000 19.250000  41.030000 
7  29.800000  78.200000  19.250000  41.030000 
8  252.930000 394.140000 19.250000  41.030000 
9  170.730000 394.140000 19.250000  41.030000 
10 29.800000  166.000000 19.250000  41.030000 
#g_Efficiency
30.000000        0.410000         0.100000        
32.800000        0.460000         0.100000        
59.537000        0.720000         0.100000        
391.700000       0.150000         0.100000        
661.700000       0.090000         0.100000        
662.000000       0.090000         0.100000        
#b-gEfficiency
XE-135     2        0.2100     0.0040    
XE-133     3        0.3710     0.0200    
XE-133     4        0.2600     0.0300    
XE-131m    5        0.2980     0.0050    
XE-133m    6        0.2340     0.0050    
XE-1337    7        0.1030     0.0100    
XE-1338    8        0.0130     0.0100    
XE-1339    9        0.0540     0.0100    
XE-13310   10       0.2020     0.0200    
#Ratios
PB214_352:242   1  2  0.650000   0.008300  
PB214_352:80    1  3  1.320000   0.010000  
PB214_352:30_4  1  4  0.220000   0.010000  
PB214_352:30_5  1  5  0.060000   0.010000  
PB214_352:30_6  1  6  0.060000   0.005100  
PB214_352:30_7  1  7  0.031000   0.001100  
PB214_352:30_8  1  8  0.066000   0.001600  
PB214_352:30_9  1  9  0.126000   0.002000  
PB214_352:30_10 1  10 0.090000   0.001600  
XE133-4_81:30   3  4  0.103000   0.002100  
XE133-5_81:30   3  5  0.326000   0.004100  
XE133-6_81:30   3  6  0.136000   0.001600  
XE133-7_81:30   3  7  0.042000   0.001100  
XE133-8_81:30   3  8  0.007000   0.000400  
XE133-9_81:30   3  9  0.022000   0.000900  
XE133-10_81:30  3  10 0.080000   0.001500  
#g_Spectrum
256   720 
0     0          0          0          0          2900      
5     6308       4077       2152       1660       1716      
10    1871       2149       2310       2400       2294      
15    4288       5070       2670       1945       1662      
20    1594       1544       1497       1635       1647      
25    1711       1684       1944       2396       2761      
30    2804       2557       2192       2082       1907      
35    1872       1612       1432       1443       1414      
40    1322       1332       1282       1308       1305      
45    1333       1313       1372       1265       1312      
50    1328       1285       1243       1288       1254      
55    1339       1195       1281       1239       1287      
60    1284       1306       1255       1299       1300      
65    1256       1314       1234       1269       1304      
70    1295       1236       1251       1267       1244      
75    1337       1204       1222       1291       1241      
80    1260       1220       1248       1309       1290      
85    1253       1308       1258       1303       1272      
90    1219       1192       1208       1176       1155      
95    1159       1129       1106       1118       1087      
100   1067       1070       1090       1050       1018      
105   1009       1060       1080       1054       989       
110   993        935        949        922        981       
115   934        918        944        985        930       
120   917        872        912        873        944       
125   929        875        868        899        879       
130   854        816        842        821        842       
135   798        785        805        806        806       
140   791        758        760        790        820       
145   793        803        739        776        732       
150   812        742        788        746        727       
155   770        794        738        794        711       
160   713        724        745        721        768       
165   683        711        696        620        699       
170   672        660        693        717        692       
175   677        774        705        727        772       
180   730        756        739        741        726       
185   673        679        668        616        641       
190   659        621        628        649        596       
195   583        585        585        558        553       
200   565        578        586        578        584       
205   615        578        571        562        579       
210   548        604        611        588        607       
215   581        599        606        557        584       
220   640        609        628        600        666       
225   667        652        665        665        694       
230   641        694        636        608        640       
235   576        563        539        504        551       
240   528        474        464        489        397       
245   437        471        440        423        417       
250   455        425        0          0          0         
255   0          
#b_Spectrum
256   550 
0     0          0          0          0          8730      
5     3030       1244       665        466        384       
10    371        321        302        263        259       
15    255        234        226        217        183       
20    178        158        158        147        166       
25    141        153        138        126        153       
30    152        174        181        161        185       
35    207        171        212        227        210       
40    214        218        210        218        204       
45    182        178        206        174        192       
50    171        191        156        182        157       
55    162        145        164        143        147       
60    132        134        141        136        138       
65    140        127        131        133        132       
70    113        108        129        135        126       
75    125        139        125        137        110       
80    116        147        136        135        130       
85    119        132        128        128        141       
90    135        143        132        112        118       
95    124        117        111        127        127       
100   113        118        108        130        109       
105   106        129        135        119        93        
110   131        109        110        126        125       
115   107        105        103        104        113       
120   94         92         125        117        109       
125   95         95         109        123        98        
130   107        91         106        102        121       
135   103        94         89         83         89        
140   84         96         91         86         100       
145   78         88         77         77         77        
150   79         102        65         91         78        
155   75         75         82         72         86        
160   83         67         77         81         66        
165   69         78         58         74         68        
170   60         63         61         64         75        
175   60         59         69         62         56        
180   63         59         61         68         57        
185   46         44         56         61         48        
190   49         46         46         52         51        
195   42         47         45         41         50        
200   33         36         57         48         42        
205   50         41         46         37         40        
210   52         35         40         37         46        
215   41         41         44         31         37        
220   26         37         41         39         35        
225   34         27         23         25         36        
230   39         37         31         24         33        
235   36         28         33         25         26        
240   29         28         22         30         26        
245   39         24         26         21         28        
250   27         24         0          0          0         
255   0          
#Histogram
256   256   720  550 
0 0 0 0 0 0 0 0 0 0 0 0 0 0 0 0 0 0 0 0 0 0 0 0 0 0 0 0 0 0 0 0 0 0 0 0 0 0 0 0 0 0 0 0 0 0 0 0 0 0 0 0 0 0 0 0 0 0 0 0 0 0 0 0 0 0 0 0 0 0 0 0 0 0 0 0 0 0 0 0 0 0 0 0 0 0 0 0 0 0 0 0 0 0 0 0 0 0 0 0 0 0 0 0 0 0 0 0 0 0 0 0 0 0 0 0 0 0 0 0 0 0 0 0 0 0 0 0 0 0 0 0 0 0 0 0 0 0 0 0 0 0 0 0 0 0 0 0 0 0 0 0 0 0 0 0 0 0 0 0 0 0 0 0 0 0 0 0 0 0 0 0 0 0 0 0 0 0 0 0 0 0 0 0 0 0 0 0 0 0 0 0 0 0 0 0 0 0 0 0 0 0 0 0 0 0 0 0 0 0 0 0 0 0 0 0 0 0 0 0 0 0 0 0 0 0 0 0 0 0 0 0 0 0 0 0 0 0 0 0 0 0 0 0 0 0 0 0 0 0 0 0 0 0 0 0 
0 0 0 0 0 0 0 0 0 0 0 0 0 0 0 0 0 0 0 0 0 0 0 0 0 0 0 0 0 0 0 0 0 0 0 0 0 0 0 0 0 0 0 0 0 0 0 0 0 0 0 0 0 0 0 0 0 0 0 0 0 0 0 0 0 0 0 0 0 0 0 0 0 0 0 0 0 0 0 0 0 0 0 0 0 0 0 0 0 0 0 0 0 0 0 0 0 0 0 0 0 0 0 0 0 0 0 0 0 0 0 0 0 0 0 0 0 0 0 0 0 0 0 0 0 0 0 0 0 0 0 0 0 0 0 0 0 0 0 0 0 0 0 0 0 0 0 0 0 0 0 0 0 0 0 0 0 0 0 0 0 0 0 0 0 0 0 0 0 0 0 0 0 0 0 0 0 0 0 0 0 0 0 0 0 0 0 0 0 0 0 0 0 0 0 0 0 0 0 0 0 0 0 0 0 0 0 0 0 0 0 0 0 0 0 0 0 0 0 0 0 0 0 0 0 0 0 0 0 0 0 0 0 0 0 0 0 0 0 0 0 0 0 0 0 0 0 0 0 0 0 0 0 0 0 0 
0 0 0 0 0 0 0 0 0 0 0 0 0 0 0 0 0 0 0 0 0 0 0 0 0 0 0 0 0 0 0 0 0 0 0 0 0 0 0 0 0 0 0 0 0 0 0 0 0 0 0 0 0 0 0 0 0 0 0 0 0 0 0 0 0 0 0 0 0 0 0 0 0 0 0 0 0 0 0 0 0 0 0 0 0 0 0 0 0 0 0 0 0 0 0 0 0 0 0 0 0 0 0 0 0 0 0 0 0 0 0 0 0 0 0 0 0 0 0 0 0 0 0 0 0 0 0 0 0 0 0 0 0 0 0 0 0 0 0 0 0 0 0 0 0 0 0 0 0 0 0 0 0 0 0 0 0 0 0 0 0 0 0 0 0 0 0 0 0 0 0 0 0 0 0 0 0 0 0 0 0 0 0 0 0 0 0 0 0 0 0 0 0 0 0 0 0 0 0 0 0 0 0 0 0 0 0 0 0 0 0 0 0 0 0 0 0 0 0 0 0 0 0 0 0 0 0 0 0 0 0 0 0 0 0 0 0 0 0 0 0 0 0 0 0 0 0 0 0 0 0 0 0 0 0 0 
0 0 0 0 0 0 0 0 0 0 0 0 0 0 0 0 0 0 0 0 0 0 0 0 0 0 0 0 0 0 0 0 0 0 0 0 0 0 0 0 0 0 0 0 0 0 0 0 0 0 0 0 0 0 0 0 0 0 0 0 0 0 0 0 0 0 0 0 0 0 0 0 0 0 0 0 0 0 0 0 0 0 0 0 0 0 0 0 0 0 0 0 0 0 0 0 0 0 0 0 0 0 0 0 0 0 0 0 0 0 0 0 0 0 0 0 0 0 0 0 0 0 0 0 0 0 0 0 0 0 0 0 0 0 0 0 0 0 0 0 0 0 0 0 0 0 0 0 0 0 0 0 0 0 0 0 0 0 0 0 0 0 0 0 0 0 0 0 0 0 0 0 0 0 0 0 0 0 0 0 0 0 0 0 0 0 0 0 0 0 0 0 0 0 0 0 0 0 0 0 0 0 0 0 0 0 0 0 0 0 0 0 0 0 0 0 0 0 0 0 0 0 0 0 0 0 0 0 0 0 0 0 0 0 0 0 0 0 0 0 0 0 0 0 0 0 0 0 0 0 0 0 0 0 0 0 
0 0 0 0 0 1 0 0 0 0 1 0 0 0 0 0 1 0 0 0 0 0 0 0 0 0 0 0 1 0 0 0 0 0 1 0 0 1 0 0 0 0 0 0 0 0 0 1 0 0 0 1 0 0 0 1 0 0 0 0 0 1 0 0 1 0 0 0 0 0 0 0 0 0 0 0 0 0 0 0 0 0 0 0 0 0 0 0 0 0 0 0 0 0 0 0 0 0 0 0 0 0 0 0 0 0 0 0 0 0 0 0 0 0 0 0 0 0 0 0 0 0 0 0 0 0 0 0 0 0 0 0 0 0 0 0 0 0 0 0 0 0 0 0 0 0 0 1 0 0 0 0 0 0 0 0 0 0 0 0 0 0 0 0 0 1 0 0 0 0 0 0 0 0 1 0 0 0 0 0 0 0 0 0 0 0 0 0 0 0 0 0 0 0 0 0 0 0 0 1 0 0 0 0 0 0 0 0 0 0 0 0 0 0 0 0 0 0 0 0 0 0 0 0 0 0 0 0 0 0 0 0 0 0 0 0 0 0 0 0 0 0 0 0 0 0 0 0 0 0 0 0 0 0 0 0 
0 0 0 0 0 0 2 0 0 2 0 0 0 0 1 0 0 0 0 0 0 0 0 0 0 1 0 0 0 0 0 1 0 0 0 0 0 1 0 0 0 0 0 0 0 0 0 0 0 0 0 0 0 0 0 0 1 0 0 0 0 0 0 0 0 0 0 0 0 0 0 0 0 0 0 0 0 0 0 0 0 0 0 1 0 0 0 0 0 0 0 0 0 0 0 1 0 0 0 0 0 0 0 0 0 0 0 0 1 0 0 0 0 0 0 0 0 0 0 0 0 0 0 0 0 0 0 0 0 0 0 0 0 0 0 0 0 0 0 0 0 0 0 0 0 0 0 0 0 0 0 0 0 0 0 0 0 0 0 0 0 0 0 0 0 0 0 0 1 0 0 0 0 0 0 0 0 0 0 0 0 0 0 0 0 0 0 0 0 0 0 0 0 0 0 0 0 0 0 0 0 0 0 0 0 0 0 0 0 0 0 0 0 0 0 0 0 0 0 0 0 0 0 0 0 0 0 0 1 0 0 0 0 0 0 0 0 0 0 0 0 0 0 0 0 0 0 0 0 0 0 0 0 0 0 0 
0 0 0 0 0 0 0 2 1 0 0 0 0 0 0 0 0 0 0 2 0 0 0 0 0 0 0 0 0 0 0 1 0 0 0 0 0 0 0 0 0 0 0 0 0 0 0 0 0 0 0 0 0 0 0 0 0 0 0 0 0 0 0 0 0 0 0 0 0 0 0 0 0 0 0 0 0 0 0 0 0 0 0 0 0 0 0 0 1 0 0 0 0 0 0 0 0 0 0 0 0 0 0 0 0 0 0 0 0 0 0 0 0 0 1 0 0 0 0 0 0 0 0 0 0 0 0 0 0 0 0 0 0 0 0 0 0 0 0 0 0 0 0 0 0 0 0 0 0 0 0 0 1 0 0 0 1 0 0 0 0 0 0 0 0 0 0 0 0 0 0 0 0 0 0 0 0 0 0 0 0 0 0 0 0 0 0 0 0 0 0 0 0 0 0 0 0 0 0 0 0 0 0 0 0 0 0 0 0 0 0 0 0 0 0 0 0 0 0 0 0 0 0 0 0 0 0 0 0 0 0 0 0 0 0 0 0 0 0 0 0 0 0 0 0 0 0 0 0 0 0 0 0 0 0 0 
0 0 0 0 0 0 1 0 0 0 1 1 1 0 0 0 0 1 0 0 0 0 0 0 0 0 0 0 0 0 1 0 0 0 0 0 0 1 0 0 0 0 1 0 0 0 0 0 0 0 0 0 0 0 0 0 0 0 0 0 0 0 0 0 0 0 0 0 0 0 1 0 0 0 0 0 0 0 0 0 0 0 0 0 0 0 0 0 0 0 0 0 0 1 0 0 0 0 0 0 0 0 0 0 0 0 0 0 0 0 0 0 0 0 0 0 0 1 0 0 0 0 0 0 0 0 0 0 0 0 0 0 0 0 0 0 0 0 1 0 0 0 0 0 0 0 0 0 0 0 0 0 0 0 0 0 0 0 0 0 0 0 0 0 0 0 1 0 0 0 0 0 0 0 0 0 0 0 0 0 0 0 0 0 0 0 0 0 0 0 0 0 0 0 0 0 0 0 0 0 0 0 0 0 0 0 0 0 0 0 0 0 0 0 0 0 0 0 0 0 0 0 0 0 0 0 0 0 0 0 0 0 0 0 0 0 0 0 0 0 0 0 0 0 0 0 0 0 0 0 0 0 0 0 0 0 
0 0 0 0 0 0 0 0 0 0 0 0 0 0 0 0 0 0 0 0 1 0 0 0 0 0 0 0 0 1 1 0 0 0 0 0 0 0 0 0 0 0 0 0 1 0 0 0 0 0 0 0 0 0 0 0 1 0 0 0 0 0 1 0 0 0 0 0 0 0 0 0 1 0 0 0 0 0 0 0 0 0 0 0 0 0 0 0 0 1 0 0 0 0 0 0 0 0 0 0 0 0 0 0 0 0 0 1 0 0 0 0 0 0 0 0 0 0 0 0 0 0 0 0 0 0 0 0 0 1 0 0 0 0 0 0 0 0 0 0 0 0 1 0 0 0 0 0 0 0 0 0 0 0 0 0 0 0 0 0 0 0 0 0 0 0 0 0 0 0 0 0 0 0 0 0 0 0 0 0 0 0 0 0 0 0 0 0 0 0 0 0 0 0 0 0 0 0 0 0 0 0 0 0 0 0 0 0 0 0 0 0 0 0 0 0 1 0 0 0 0 0 0 0 0 0 0 0 0 0 0 0 0 0 0 0 0 0 0 0 0 0 0 0 0 0 0 0 0 0 0 0 0 0 0 0 
0 0 0 0 0 0 0 0 0 0 0 0 1 0 0 0 0 0 0 0 0 1 0 0 0 1 0 0 0 0 0 0 0 0 1 0 0 2 0 0 0 0 0 0 0 0 0 1 0 1 1 0 0 0 0 0 0 1 0 0 0 0 0 0 0 0 0 0 0 0 0 0 0 0 0 0 0 0 0 0 0 0 1 0 0 0 0 0 0 0 1 0 0 0 0 0 0 0 1 0 0 0 0 0 0 0 0 0 0 0 0 0 0 0 0 0 0 0 0 0 0 0 0 1 0 0 0 0 0 0 0 0 0 0 0 0 1 0 0 0 0 0 0 0 0 0 0 0 0 0 0 0 0 0 0 0 0 0 0 0 0 0 0 0 0 0 0 0 0 0 0 1 0 0 0 0 0 0 0 0 0 0 0 0 0 0 0 0 0 0 0 0 0 0 0 0 0 0 0 0 0 0 0 0 0 0 0 0 0 0 0 0 0 0 0 0 0 0 0 0 0 0 0 0 0 0 0 0 0 0 0 0 0 0 0 0 0 0 0 0 0 0 0 0 0 0 0 0 0 0 0 0 0 0 0 0 
0 0 0 0 2 0 1 0 1 0 0 1 2 0 0 0 1 2 4 1 1 1 2 1 2 0 0 0 0 2 2 5 2 3 1 3 5 7 4 6 6 4 1 3 1 1 0 2 1 0 0 0 0 1 0 0 0 0 1 0 1 1 1 0 0 0 1 0 1 0 0 0 0 0 0 0 0 0 1 0 0 0 0 0 0 0 0 0 1 0 0 0 0 0 1 0 1 0 0 0 0 0 0 0 0 0 0 0 0 0 0 0 0 0 0 0 0 0 0 0 0 0 0 0 0 0 0 0 0 0 0 0 0 0 0 0 0 0 0 0 0 0 0 0 0 0 0 0 0 0 0 0 0 0 0 1 0 0 0 0 0 0 0 0 0 0 0 0 0 0 0 0 0 0 0 0 0 0 0 0 0 0 0 0 0 0 0 0 0 0 0 0 0 0 0 0 0 0 0 0 0 0 0 0 0 0 0 0 0 0 0 0 0 0 1 0 0 0 0 0 0 0 0 0 0 0 0 0 0 0 0 0 0 0 0 0 0 0 0 0 0 0 0 0 0 0 0 0 0 0 0 0 0 0 0 0 
0 0 0 0 2 0 1 0 2 3 2 0 2 2 4 3 1 1 1 2 4 1 1 4 3 3 4 2 4 6 1 3 7 7 6 8 5 7 10 10 5 6 5 4 3 2 2 2 2 3 4 0 1 1 2 1 1 2 1 2 1 1 0 1 1 1 0 1 2 0 2 1 0 0 0 0 1 2 0 0 0 0 0 1 0 0 0 0 0 0 0 0 0 0 0 0 0 0 0 0 1 0 0 0 0 0 0 0 0 0 0 1 0 0 0 0 0 0 0 1 1 0 0 0 0 0 0 0 0 0 1 0 0 0 1 0 0 0 0 0 0 0 0 0 1 0 0 0 0 0 0 0 0 0 0 0 0 0 0 0 0 0 0 0 0 0 0 1 0 0 0 0 0 0 0 0 0 0 0 0 0 0 0 0 0 0 0 0 0 0 0 0 0 0 0 0 0 0 0 0 0 0 0 0 0 0 0 0 0 0 0 0 0 0 0 0 0 0 0 0 0 0 0 0 0 0 0 0 0 0 0 0 0 0 0 0 0 0 0 0 0 0 0 0 0 0 0 0 0 1 0 0 0 0 0 0 
0 0 0 0 1 2 0 2 2 2 1 3 4 2 2 1 4 1 4 4 3 3 2 2 6 1 2 4 2 5 1 9 8 5 4 12 9 10 7 7 9 11 3 6 3 4 1 3 1 3 0 3 1 1 1 2 0 2 0 0 2 1 1 1 1 0 1 0 1 0 0 0 1 1 1 0 0 0 0 3 1 1 0 2 0 0 0 0 1 0 0 0 0 1 1 0 0 0 1 1 0 0 1 0 0 0 0 1 0 0 0 0 0 0 0 0 0 0 0 0 0 0 0 0 0 0 0 0 0 0 0 0 0 0 0 0 0 0 0 1 0 0 0 0 0 0 0 0 0 0 0 0 0 0 0 1 0 0 0 0 0 0 0 0 1 0 0 0 0 1 0 0 0 0 0 0 0 0 0 0 0 0 0 0 0 0 0 0 0 0 0 0 0 0 0 0 0 0 0 0 0 0 0 0 0 0 0 0 0 0 0 0 0 0 0 0 0 0 0 0 0 0 0 0 0 0 0 0 0 0 0 0 0 0 0 0 0 0 0 0 0 0 0 0 0 0 0 0 0 0 0 0 0 0 0 0 
0 0 0 0 1 2 2 1 0 0 0 3 3 1 0 1 2 3 1 1 4 1 3 2 1 2 1 3 2 1 1 5 5 0 0 6 3 3 8 3 3 0 4 2 4 0 2 1 2 1 1 0 0 0 1 2 0 0 0 0 1 0 0 0 1 0 0 0 0 0 0 0 1 1 0 1 1 0 1 0 0 2 0 0 0 1 0 1 1 1 0 0 1 0 1 1 0 1 0 0 0 0 0 0 0 0 0 0 0 0 0 0 0 0 0 1 0 0 0 0 0 0 0 0 0 0 0 0 0 0 0 0 0 0 0 0 0 0 0 0 0 0 0 0 0 0 0 0 0 0 0 0 0 0 0 0 0 0 0 0 0 0 0 0 0 0 0 0 0 0 0 0 0 1 0 0 0 0 0 0 0 0 0 0 0 0 0 0 0 0 0 0 0 0 0 0 0 0 0 0 0 0 0 0 0 0 0 0 0 0 0 0 0 0 0 0 0 0 0 0 0 0 0 0 0 0 0 0 0 0 0 0 0 0 0 0 0 0 0 0 0 0 0 0 0 0 0 0 0 0 0 0 0 0 0 0 
0 0 0 0 0 0 1 0 0 0 0 1 1 0 0 1 1 0 1 2 1 1 0 0 0 2 0 0 0 0 5 1 1 1 2 3 0 0 2 1 3 1 0 0 2 0 1 1 0 0 0 1 1 2 0 0 0 0 0 0 0 0 1 0 0 1 0 0 0 0 1 0 0 1 0 1 0 0 0 0 0 1 0 0 0 0 0 0 0 0 0 0 0 0 0 0 1 0 0 0 0 0 0 0 0 0 0 0 0 0 0 1 0 0 0 0 0 0 0 0 0 0 0 0 0 0 0 0 0 0 0 0 0 0 0 0 0 0 0 1 0 0 0 0 0 0 0 0 0 0 0 0 1 0 0 0 0 0 0 0 0 0 0 0 0 0 0 0 0 0 0 0 0 0 0 0 0 0 1 0 0 0 0 0 0 0 0 0 0 0 0 0 0 0 0 0 0 0 0 0 0 0 0 0 0 0 0 0 0 0 0 0 0 0 0 0 0 0 0 0 0 0 0 1 0 0 0 0 0 0 0 0 0 0 0 0 0 0 0 0 0 0 0 0 0 0 0 0 0 0 0 0 0 0 0 0 
0 0 0 0 0 0 0 1 0 1 0 0 0 0 0 2 1 0 0 0 2 1 0 0 0 0 0 0 0 0 0 0 1 0 0 0 0 0 0 0 0 0 0 1 0 0 0 0 0 0 0 0 0 0 0 0 0 0 0 0 0 0 0 0 1 0 0 0 0 0 0 0 0 0 0 0 0 0 0 0 0 2 0 0 0 0 0 0 0 0 0 0 0 0 0 0 0 0 0 0 0 0 0 0 0 0 0 0 0 0 0 0 0 0 0 0 0 0 0 0 0 0 0 0 0 0 0 0 0 0 0 0 0 0 0 0 0 0 1 0 0 0 0 0 0 0 0 0 0 0 0 0 0 0 0 0 0 0 0 0 0 0 0 0 0 0 0 0 1 0 0 0 0 0 0 0 0 0 0 0 0 0 0 0 0 0 0 0 0 0 0 0 0 0 0 0 0 0 0 0 0 0 0 0 0 0 0 0 0 0 0 0 0 0 0 0 0 0 0 0 0 0 0 0 0 0 0 1 0 0 0 0 0 0 0 0 0 0 0 0 0 0 0 0 0 0 0 0 0 0 0 0 0 0 0 0 
0 0 0 0 0 1 0 0 1 1 0 0 0 0 0 0 0 0 0 0 0 0 0 0 0 0 0 0 0 0 0 0 0 0 0 0 0 0 0 0 0 0 0 0 0 0 0 1 0 0 1 0 0 0 0 0 0 0 0 0 0 0 0 0 0 0 0 0 0 0 0 0 1 0 0 0 0 0 1 0 0 0 0 0 0 0 0 0 0 0 0 0 0 0 0 0 1 0 1 0 0 0 0 0 0 0 0 0 0 0 0 0 0 0 0 0 0 0 0 0 0 0 0 1 0 0 0 0 0 0 0 0 0 0 0 0 0 0 0 0 0 0 0 0 0 0 0 0 0 0 0 0 0 0 0 0 0 0 0 0 0 0 0 0 0 0 1 0 0 0 0 0 0 0 1 0 0 0 0 0 0 0 0 0 0 0 0 0 0 0 1 0 0 0 0 0 0 0 0 0 0 0 0 0 0 0 0 0 0 0 0 0 0 0 0 0 0 0 0 0 0 0 0 0 0 0 0 0 0 0 0 0 0 0 0 0 0 0 0 0 0 0 0 0 0 0 0 0 0 0 0 0 0 0 0 0 
