BEGIN IMS2.0
MSG_TYPE DATA
MSG_ID 20211228080107855
DATA_TYPE SPIKEPHD
#Header 3
MIX58 MIX58_221 B CYLINDER          PREL
58202112271311K
MIX58_221-2021/12/28-06:00:35.6 MIX58_221-2021/08/16-06:20:33.4 MIX58_221-2021/12/27-22:13:37.7
2021/12/28 08:01:07.8
#Comment
Histogram data

#Collection
2021/12/27 13:00:26.0 2021/12/28 00:59:59.0 19.7425289
#Acquisition
2021/12/28 06:00:35.6 7232.17        6986.41       
#Calibration
2021/12/28 06:00:35.6
#Processing
0.13706  0.01192 
0.08635  0.00751 
12
#g_Energy
30.000000        11.400000        0.050000        
53.160000        19.800000        0.050000        
81.000000        31.200000        0.050000        
356.010000       126.900000       0.050000        
661.660000       230.000000       0.050000        
#b_Energy
78.630000        C 18.330000        0.100000        
93.656000        C 22.300000        0.100000        
108.648000       C 26.300000        0.100000        
123.600000       C 31.200000        0.100000        
138.520000       C 35.800000        0.100000        
153.400000       C 40.200000        0.100000        
168.250000       C 45.100000        0.100000        
183.057000       C 50.500000        0.100000        
197.830000       C 54.700000        0.100000        
212.569000       C 59.900000        0.100000        
227.272000       C 64.200000        0.100000        
241.940000       C 68.700000        0.100000        
256.575000       C 73.700000        0.100000        
271.171000       C 78.300000        0.100000        
285.740000       C 82.800000        0.100000        
300.270000       C 87.700000        0.100000        
314.770000       C 92.600000        0.100000        
329.230000       C 97.600000        0.100000        
343.660000       C 101.300000       0.100000        
358.060000       C 106.400000       0.100000        
372.420000       C 111.900000       0.100000        
386.760000       C 116.900000       0.100000        
401.060000       C 121.800000       0.100000        
415.328000       C 125.700000       0.100000        
#g_Resolution
30.000000        6.310000         0.200000        
53.160000        8.700000         0.200000        
81.000000        11.800000        0.200000        
356.010000       32.800000        0.200000        
661.660000       48.800000        0.200000        
#b_Resolution
93.656000        16.400000        0.300000        
123.600000       24.000000        0.300000        
153.400000       35.400000        0.300000        
183.057000       41.700000        0.300000        
212.569000       51.600000        0.300000        
241.940000       57.000000        0.300000        
271.171000       65.600000        0.300000        
300.270000       73.100000        0.300000        
329.230000       78.300000        0.300000        
358.060000       85.000000        0.300000        
386.760000       93.800000        0.300000        
#ROI_Limits
1  34.690000  671.000000 319.350000 384.780000
2  34.690000  765.200000 224.040000 275.550000
3  34.690000  346.400000 67.940000  94.060000 
4  34.690000  391.400000 17.720000  40.050000 
5  82.360000  159.230000 17.720000  40.050000 
6  163.430000 245.550000 17.720000  40.050000 
7  34.690000  82.360000  17.720000  40.050000 
8  246.550000 391.400000 17.720000  40.050000 
9  163.431000 391.400000 17.720000  40.050000 
10 34.690000  159.230000 17.720000  40.050000 
#g_Efficiency
30.000000        0.400000         0.100000        
32.800000        0.420000         0.100000        
59.537000        0.730000         0.100000        
391.700000       0.180000         0.100000        
661.700000       0.080000         0.100000        
662.000000       0.080000         0.100000        
#b-gEfficiency
XE-135     2        0.2900     0.0100    
XE-133     3        0.3900     0.0800    
XE-133     4        0.3500     0.0900    
XE-131m    5        0.3600     0.0100    
XE-133m    6        0.3400     0.0100    
XE-1337    7        0.1340     0.0340    
XE-1338    8        0.0220     0.0060    
XE-1339    9        0.0950     0.0240    
XE-13310   10       0.2400     0.0620    
#Ratios
PB214_352:242   1  2  0.677000   0.020000  
PB214_352:80    1  3  1.220000   0.020000  
PB214_352:30_4  1  4  0.219000   0.020000  
PB214_352:30_5  1  5  0.041000   0.020000  
PB214_352:30_6  1  6  0.067000   0.010000  
PB214_352:30_7  1  7  0.033000   0.010000  
PB214_352:30_8  1  8  0.073000   0.010000  
PB214_352:30_9  1  9  0.140000   0.010000  
PB214_352:30_10 1  10 0.074000   0.010000  
XE133-4_81:30   3  4  0.094000   0.002100  
XE133-5_81:30   3  5  0.341000   0.004100  
XE133-6_81:30   3  6  0.229000   0.001000  
XE133-7_81:30   3  7  0.039000   0.001100  
XE133-8_81:30   3  8  0.008000   0.000400  
XE133-9_81:30   3  9  0.030000   0.000900  
XE133-10_81:30  3  10 0.062000   0.001500  
#g_Spectrum
256   720 
0     0          0          0          0          4616      
5     4986       5554       4971       4849       4785      
10    4763       4770       4810       4736       4680      
15    5095       6383       7497       8131       7179      
20    6913       6881       6823       6893       7004      
25    7544       9616       17099      33029      50397     
30    51599      36114      23843      20313      18350     
35    13465      8238       5561       4302       3755      
40    3483       3292       3305       3329       3160      
45    3343       3389       3480       3744       3904      
50    4174       4278       4306       4370       4505      
55    4632       4728       4596       4576       4347      
60    4198       4140       3805       3741       3580      
65    3546       3566       3402       3424       3362      
70    3257       3080       3134       3050       2947      
75    2924       2860       2780       2711       2762      
80    2716       3013       3306       4152       5043      
85    5829       6561       6859       6852       6631      
90    6156       5427       4725       3915       3461      
95    2951       2868       2904       3026       3573      
100   4379       5416       6605       7760       8483      
105   9076       9592       9291       9118       8157      
110   7413       6239       5102       4090       3499      
115   3043       3038       3501       4209       4979      
120   6170       7460       8692       9787       10497     
125   10951      11261      11039      10475      9453      
130   8147       6913       5591       4428       3485      
135   2859       2285       1892       1536       1440      
140   1342       1200       1197       1079       1089      
145   987        943        947        893        935       
150   986        885        860        829        858       
155   805        831        853        896        834       
160   863        872        842        834        834       
165   865        868        881        840        857       
170   876        873        884        837        808       
175   817        793        761        740        783       
180   785        802        757        761        749       
185   778        728        750        756        780       
190   746        729        724        761        755       
195   723        787        880        844        888       
200   1033       1058       1224       1282       1420      
205   1624       1821       1930       2166       2364      
210   2432       2566       2686       2642       2645      
215   2522       2404       2238       2138       1868      
220   1692       1514       1336       1181       1092      
225   919        901        819        799        777       
230   703        755        683        702        658       
235   662        679        626        605        566       
240   628        624        602        600        589       
245   575        558        617        582        560       
250   609        587        0          0          0         
255   0          
#b_Spectrum
256   550 
0     0          0          0          0          38832     
5     25945      22052      20692      19535      18899     
10    18278      17966      17410      17498      17243     
15    17014      16792      16556      16584      16391     
20    16283      16387      16197      16208      15940     
25    15961      15946      15535      15944      15903     
30    15890      15916      16053      16012      16130     
35    16441      16509      16957      17290      17620     
40    17690      18220      18456      18619      19006     
45    19518      19300      19860      20139      20216     
50    20405      20821      20693      21224      21221     
55    21567      22057      21468      21494      21567     
60    21870      21538      21707      21666      21874     
65    21707      21654      21964      22235      21716     
70    22010      22041      22051      22076      22329     
75    22306      22343      22439      22414      22616     
80    22711      22578      22903      22894      23002     
85    23181      23269      23393      23457      23647     
90    24015      24148      24549      25133      25229     
95    25480      25902      26704      26953      27159     
100   28106      28385      29395      30097      30828     
105   31681      32395      33352      34625      35797     
110   36672      37320      38926      39967      40821     
115   41984      43074      44100      45459      46051     
120   47261      48060      48922      49896      50896     
125   51757      52346      53246      54146      54879     
130   55728      56260      56485      56979      56843     
135   56899      57077      57878      57101      57421     
140   56973      56225      55961      55248      54222     
145   53664      52411      51689      50358      49115     
150   47819      46551      45393      44296      42759     
155   41581      40315      39026      38075      36776     
160   35860      35348      34507      33231      32275     
165   31414      31071      30459      29490      29371     
170   28981      28588      27928      27468      27132     
175   26540      26044      25825      25164      24915     
180   24234      23999      23529      22977      22378     
185   21892      21264      20728      20331      19690     
190   19063      18699      17863      17351      16906     
195   16303      15813      15159      14736      14310     
200   14071      13353      13160      12536      12108     
205   11725      11380      10816      10638      10303     
210   9970       9647       9470       9109       8761      
215   8578       8359       8073       7808       7896      
220   7433       7307       7294       7224       6935      
225   7029       7146       6938       7093       7118      
230   6845       7179       7323       7222       7154      
235   7324       7675       7673       7675       7675      
240   7833       8004       8160       8312       8305      
245   8457       8405       8473       8722       8456      
250   8438       8512       0          0          0         
255   0          
#Histogram
256   256   720  550 
0 0 0 0 0 0 0 0 0 0 0 0 0 0 0 0 0 0 0 0 0 0 0 0 0 0 0 0 0 0 0 0 0 0 0 0 0 0 0 0 0 0 0 0 0 0 0 0 0 0 0 0 0 0 0 0 0 0 0 0 0 0 0 0 0 0 0 0 0 0 0 0 0 0 0 0 0 0 0 0 0 0 0 0 0 0 0 0 0 0 0 0 0 0 0 0 0 0 0 0 0 0 0 0 0 0 0 0 0 0 0 0 0 0 0 0 0 0 0 0 0 0 0 0 0 0 0 0 0 0 0 0 0 0 0 0 0 0 0 0 0 0 0 0 0 0 0 0 0 0 0 0 0 0 0 0 0 0 0 0 0 0 0 0 0 0 0 0 0 0 0 0 0 0 0 0 0 0 0 0 0 0 0 0 0 0 0 0 0 0 0 0 0 0 0 0 0 0 0 0 0 0 0 0 0 0 0 0 0 0 0 0 0 0 0 0 0 0 0 0 0 0 0 0 0 0 0 0 0 0 0 0 0 0 0 0 0 0 0 0 0 0 0 0 0 0 0 0 0 0 0 0 0 0 0 0 
0 0 0 0 0 0 0 0 0 0 0 0 0 0 0 0 0 0 0 0 0 0 0 0 0 0 0 0 0 0 0 0 0 0 0 0 0 0 0 0 0 0 0 0 0 0 0 0 0 0 0 0 0 0 0 0 0 0 0 0 0 0 0 0 0 0 0 0 0 0 0 0 0 0 0 0 0 0 0 0 0 0 0 0 0 0 0 0 0 0 0 0 0 0 0 0 0 0 0 0 0 0 0 0 0 0 0 0 0 0 0 0 0 0 0 0 0 0 0 0 0 0 0 0 0 0 0 0 0 0 0 0 0 0 0 0 0 0 0 0 0 0 0 0 0 0 0 0 0 0 0 0 0 0 0 0 0 0 0 0 0 0 0 0 0 0 0 0 0 0 0 0 0 0 0 0 0 0 0 0 0 0 0 0 0 0 0 0 0 0 0 0 0 0 0 0 0 0 0 0 0 0 0 0 0 0 0 0 0 0 0 0 0 0 0 0 0 0 0 0 0 0 0 0 0 0 0 0 0 0 0 0 0 0 0 0 0 0 0 0 0 0 0 0 0 0 0 0 0 0 0 0 0 0 0 0 
0 0 0 0 0 0 0 0 0 0 0 0 0 0 0 0 0 0 0 0 0 0 0 0 0 0 0 0 0 0 0 0 0 0 0 0 0 0 0 0 0 0 0 0 0 0 0 0 0 0 0 0 0 0 0 0 0 0 0 0 0 0 0 0 0 0 0 0 0 0 0 0 0 0 0 0 0 0 0 0 0 0 0 0 0 0 0 0 0 0 0 0 0 0 0 0 0 0 0 0 0 0 0 0 0 0 0 0 0 0 0 0 0 0 0 0 0 0 0 0 0 0 0 0 0 0 0 0 0 0 0 0 0 0 0 0 0 0 0 0 0 0 0 0 0 0 0 0 0 0 0 0 0 0 0 0 0 0 0 0 0 0 0 0 0 0 0 0 0 0 0 0 0 0 0 0 0 0 0 0 0 0 0 0 0 0 0 0 0 0 0 0 0 0 0 0 0 0 0 0 0 0 0 0 0 0 0 0 0 0 0 0 0 0 0 0 0 0 0 0 0 0 0 0 0 0 0 0 0 0 0 0 0 0 0 0 0 0 0 0 0 0 0 0 0 0 0 0 0 0 0 0 0 0 0 0 
0 0 0 0 0 0 0 0 0 0 0 0 0 0 0 0 0 0 0 0 0 0 0 0 0 0 0 0 0 0 0 0 0 0 0 0 0 0 0 0 0 0 0 0 0 0 0 0 0 0 0 0 0 0 0 0 0 0 0 0 0 0 0 0 0 0 0 0 0 0 0 0 0 0 0 0 0 0 0 0 0 0 0 0 0 0 0 0 0 0 0 0 0 0 0 0 0 0 0 0 0 0 0 0 0 0 0 0 0 0 0 0 0 0 0 0 0 0 0 0 0 0 0 0 0 0 0 0 0 0 0 0 0 0 0 0 0 0 0 0 0 0 0 0 0 0 0 0 0 0 0 0 0 0 0 0 0 0 0 0 0 0 0 0 0 0 0 0 0 0 0 0 0 0 0 0 0 0 0 0 0 0 0 0 0 0 0 0 0 0 0 0 0 0 0 0 0 0 0 0 0 0 0 0 0 0 0 0 0 0 0 0 0 0 0 0 0 0 0 0 0 0 0 0 0 0 0 0 0 0 0 0 0 0 0 0 0 0 0 0 0 0 0 0 0 0 0 0 0 0 0 0 0 0 0 0 
0 0 0 0 28 25 26 28 30 32 20 29 26 23 22 25 20 26 16 12 19 19 18 16 21 17 26 10 12 16 18 19 16 19 19 18 15 19 17 25 17 23 23 21 16 18 31 25 22 28 26 25 29 14 22 27 33 28 21 22 27 21 21 28 19 31 21 23 17 20 14 19 13 22 24 18 19 25 17 19 24 13 19 16 18 26 26 14 13 25 21 15 19 24 24 18 24 17 19 16 19 12 14 22 20 15 14 9 16 10 11 11 10 5 17 15 12 13 10 12 10 14 10 11 6 13 11 6 9 9 7 12 7 14 9 5 8 8 8 4 6 9 8 3 6 5 3 8 3 6 6 4 4 7 2 8 7 7 5 8 6 4 3 2 4 4 5 3 3 4 4 4 3 3 4 4 2 7 0 6 4 2 3 6 3 2 2 2 5 5 0 1 0 3 1 4 2 6 1 1 2 0 1 0 2 2 1 4 1 3 4 3 1 1 3 0 3 2 2 2 2 2 1 4 0 0 1 3 0 1 0 1 0 0 2 1 0 1 0 1 0 0 0 1 1 0 1 3 0 1 0 1 0 0 0 0 
0 0 0 0 45 26 20 26 19 22 25 16 24 28 22 25 33 21 26 15 22 16 19 18 18 23 24 23 28 18 18 25 22 24 21 24 22 25 24 18 18 22 25 18 31 27 26 23 21 22 31 23 22 30 36 17 22 21 18 14 29 21 33 32 32 28 17 22 22 25 25 22 20 25 33 20 18 19 22 17 29 21 11 18 16 13 16 32 31 23 18 21 16 23 8 15 23 16 11 13 22 15 20 12 19 10 12 14 11 15 14 8 17 17 15 8 14 8 6 16 14 10 12 10 9 13 6 7 6 10 4 10 6 9 7 9 8 16 13 5 10 9 9 3 7 8 6 6 7 6 13 5 5 4 5 7 5 6 5 7 1 6 4 4 6 8 9 3 1 5 2 8 2 4 6 8 3 5 3 3 5 2 0 3 4 2 6 3 2 3 6 5 5 3 6 2 0 1 2 4 3 1 2 2 3 3 0 1 3 2 3 3 3 2 0 1 4 0 2 0 1 2 1 1 2 3 2 1 0 0 5 3 0 1 2 2 4 1 1 0 1 0 2 3 0 2 1 0 1 0 2 2 0 0 0 0 
0 0 0 0 33 32 27 28 22 25 31 33 19 25 24 25 26 29 22 11 25 24 19 28 26 23 24 14 20 28 19 28 21 28 29 17 16 23 26 37 26 23 39 18 26 27 26 24 30 23 40 22 28 34 20 22 19 22 30 30 20 26 23 26 20 27 24 22 23 20 22 21 26 30 14 19 30 21 23 16 23 25 23 22 19 21 15 22 18 18 16 17 18 17 18 25 12 28 13 16 16 14 9 21 16 16 21 18 17 14 9 13 12 8 14 18 12 17 14 16 16 10 20 14 19 14 15 11 9 11 5 5 18 12 16 5 10 13 6 8 14 7 8 8 6 7 5 3 8 9 6 3 2 9 8 9 9 6 3 5 5 5 6 6 4 5 5 6 2 6 7 5 5 3 6 5 3 5 4 6 7 8 2 6 2 6 2 3 9 3 5 1 1 4 2 2 3 2 1 2 2 1 3 3 3 2 3 4 4 5 1 2 1 1 0 0 6 2 1 1 6 0 3 1 1 0 0 1 2 1 4 1 2 1 1 1 1 1 2 1 3 1 0 3 1 1 1 0 1 3 2 1 0 0 0 0 
0 0 0 0 37 34 29 26 33 22 23 15 23 27 15 18 31 23 27 25 21 17 23 26 12 22 28 16 20 29 20 23 17 25 20 22 20 30 29 27 21 28 26 30 29 28 23 31 23 26 35 30 24 24 32 35 25 23 32 34 34 16 25 36 26 21 26 22 15 20 24 32 23 28 29 24 22 23 18 20 31 16 20 28 18 25 18 18 24 13 21 16 15 16 15 24 11 22 15 10 21 20 17 16 23 15 20 21 18 16 16 19 29 11 13 12 12 10 17 7 12 14 9 8 9 10 11 8 7 16 8 7 16 14 10 13 6 7 13 3 11 12 5 11 10 3 5 4 6 8 5 4 11 6 11 5 10 4 8 7 1 8 3 6 3 6 7 6 5 10 4 4 4 4 5 7 2 5 6 3 3 5 3 3 3 4 5 3 4 4 1 5 3 0 4 2 4 3 3 5 1 1 6 3 2 2 3 1 3 1 1 2 2 2 4 3 0 5 2 1 2 2 0 2 1 3 1 2 1 1 2 4 1 3 2 1 3 3 1 0 1 1 3 3 3 0 1 1 1 2 0 0 0 0 0 0 
0 0 0 0 41 27 25 42 30 29 16 34 31 25 24 18 12 19 24 24 15 16 23 20 26 14 17 20 22 20 21 33 19 15 17 13 17 27 13 23 30 26 31 24 22 19 28 33 28 28 27 28 27 22 35 29 35 30 26 27 24 20 23 32 28 21 21 26 20 25 24 21 23 17 22 26 26 14 32 28 23 20 21 24 30 27 20 25 22 17 22 12 20 18 29 13 24 16 10 17 17 19 16 13 20 19 16 14 15 11 10 16 13 11 18 11 13 14 17 10 18 15 16 19 7 19 11 14 14 6 7 8 8 11 7 9 6 8 4 10 11 6 6 9 6 5 12 12 5 6 4 9 6 7 5 9 6 4 7 16 5 6 6 6 0 8 3 8 5 3 5 4 0 1 1 4 4 4 7 2 1 4 2 6 3 2 4 2 4 4 2 1 2 2 3 2 5 2 1 0 1 4 4 1 1 2 4 1 4 2 1 3 3 2 3 0 1 0 4 5 3 3 3 1 5 0 4 4 1 0 2 4 3 2 0 4 4 1 0 3 2 4 0 1 2 1 0 1 5 1 2 1 0 0 0 0 
0 0 0 0 37 33 34 26 25 23 29 20 25 17 18 22 16 24 19 17 21 26 21 20 24 24 15 26 25 18 17 27 25 20 15 21 21 17 23 21 18 32 24 25 39 19 31 26 21 27 28 24 30 29 23 34 38 35 27 41 30 32 25 23 26 24 22 15 18 30 23 26 18 33 18 35 27 27 22 29 16 26 31 23 22 14 18 21 23 16 20 14 20 17 20 21 11 17 15 21 13 19 15 20 14 14 19 16 17 21 13 24 15 15 16 9 8 9 16 15 7 13 14 17 7 12 10 15 11 19 8 8 13 6 12 7 8 10 9 4 11 8 11 4 9 6 12 12 9 10 4 9 7 6 10 5 6 10 3 12 11 3 9 7 5 8 5 8 3 4 5 0 9 6 5 5 2 3 9 1 7 4 4 3 4 5 2 4 7 0 3 4 2 2 0 6 2 2 2 2 0 4 3 2 3 2 3 4 4 3 2 0 3 1 5 3 6 1 1 1 4 1 5 1 5 2 5 3 1 0 1 0 2 0 0 0 5 0 1 2 2 2 2 0 5 2 0 0 1 4 1 0 0 0 0 0 
0 0 0 0 35 30 25 25 20 21 24 18 26 22 30 28 20 25 21 27 19 20 23 15 17 25 18 17 25 20 16 12 25 20 26 21 19 21 35 18 21 23 18 24 21 20 31 26 33 21 33 29 35 22 28 25 24 21 28 25 24 25 26 29 30 22 21 21 31 16 28 23 25 18 18 16 23 14 23 18 29 20 21 30 31 18 16 20 18 18 21 23 13 22 19 17 16 9 24 14 21 17 23 11 20 15 19 21 12 17 20 15 15 14 15 15 16 19 15 12 15 9 14 12 12 5 11 13 14 5 15 9 11 10 11 16 14 13 11 9 14 8 15 6 7 10 10 7 6 11 11 10 7 9 5 6 6 6 7 11 5 4 5 1 5 8 5 3 6 7 2 7 1 7 4 4 1 3 9 3 2 5 5 2 5 2 5 2 2 4 0 5 6 2 3 5 4 3 2 9 1 2 5 1 2 1 0 2 0 3 1 1 3 1 1 0 3 1 3 10 2 5 4 2 2 0 3 0 2 3 4 1 0 3 2 1 1 0 1 2 5 1 1 3 1 2 6 0 2 0 2 2 0 0 0 0 
0 0 0 0 27 29 24 29 21 32 20 29 11 22 16 23 18 19 22 22 23 21 21 20 16 14 25 25 16 14 14 13 21 19 21 19 24 28 19 27 30 31 13 26 22 28 25 41 36 32 27 30 19 33 20 27 25 33 20 31 24 28 21 24 29 26 25 20 27 25 21 30 22 25 20 28 22 23 23 21 28 16 22 18 21 22 17 18 21 28 24 11 16 27 14 17 18 20 28 23 27 14 22 17 12 17 18 16 33 7 20 17 17 18 11 13 15 17 9 17 12 15 6 11 11 13 10 14 11 15 7 10 11 11 12 13 8 7 5 8 7 11 15 10 8 14 6 5 3 9 6 9 5 4 7 7 15 4 12 3 4 8 6 4 6 6 9 4 4 4 9 5 4 4 8 7 6 7 5 2 3 9 9 8 8 0 4 3 3 5 5 2 5 3 2 0 1 3 2 2 1 6 4 3 3 4 7 2 5 2 1 4 2 3 4 0 3 3 3 5 2 0 2 0 1 4 2 1 1 2 7 2 1 1 2 2 2 2 4 5 0 1 2 2 2 0 1 0 4 2 2 0 0 0 0 0 
0 0 0 0 34 20 27 26 36 22 23 12 27 18 19 13 21 21 20 20 22 13 24 12 15 19 18 17 17 17 21 27 17 12 18 13 18 23 20 22 26 23 14 21 23 17 28 33 25 16 26 31 23 19 29 34 29 35 31 32 22 25 38 30 17 28 35 27 34 20 30 18 19 21 18 30 22 24 20 23 17 17 21 19 20 24 30 25 22 15 22 19 14 15 23 20 20 18 17 18 18 21 14 9 25 24 15 20 11 15 16 11 13 20 16 16 16 12 18 11 9 16 20 10 9 7 12 10 8 8 14 12 13 4 8 6 9 10 9 10 9 12 6 12 10 12 8 7 6 8 9 7 10 8 7 6 5 6 5 8 9 3 7 5 8 7 1 7 9 9 10 5 3 6 3 4 7 3 12 5 6 4 7 1 6 2 2 3 5 5 4 1 5 3 6 5 1 1 6 2 3 4 1 2 8 2 1 3 2 4 4 3 1 7 3 1 2 0 3 3 4 5 1 5 2 3 4 0 1 2 2 2 1 1 2 2 3 1 1 3 3 0 0 1 2 0 0 2 0 2 1 1 0 0 0 0 
0 0 0 0 31 29 31 18 20 27 23 28 21 15 20 29 14 15 24 19 23 23 16 25 21 25 22 17 18 16 21 17 20 26 18 15 23 14 23 16 20 22 10 28 25 25 28 39 25 21 24 19 23 19 27 24 22 22 28 26 30 20 24 21 29 25 17 23 24 29 25 20 21 25 15 28 28 20 21 21 17 24 31 17 27 14 25 27 23 15 15 15 10 15 18 19 21 22 16 20 13 15 19 19 9 17 16 12 18 17 17 16 11 12 15 14 20 17 10 14 7 12 10 13 8 11 12 7 8 10 16 11 9 8 11 9 9 12 7 9 16 10 16 12 10 8 9 13 13 7 4 9 8 3 3 6 7 7 4 0 6 6 4 2 9 7 5 7 4 7 5 7 7 5 1 4 3 4 4 2 4 1 5 4 3 3 5 6 2 11 5 4 2 4 2 7 2 2 0 5 4 3 3 3 4 5 3 1 7 2 0 1 5 1 1 2 1 3 7 4 2 6 0 1 2 5 0 2 2 2 5 3 5 4 2 1 4 2 3 5 2 1 2 2 4 1 1 4 2 3 1 0 0 0 0 0 
